FENGYUN 1C DEB          
1 36729U 99025EBB 17342.97585595  .00000194  00000-0  13828-3 0  9991
2 36729  98.8208  25.8350 0047090 250.0080 109.6015 14.07944362462983
